[{"OBJECT_NAME":"STARLINK-31988","OBJECT_ID":"2024-150U","EPOCH":"2026-02-23T20:46:40.388736","MEAN_MOTION":15.3018327,"ECCENTRICITY":0.0001233,"INCLINATION":53.1633,"RA_OF_ASC_NODE":11.3218,"ARG_OF_PERICENTER":83.074,"MEAN_ANOMALY":277.0401,"EPHEMERIS_TYPE":0,"CLASSIFICATION_TYPE":"U","NORAD_CAT_ID":60601,"ELEMENT_SET_NO":999,"REV_AT_EPOCH":8584,"BSTAR":-4.8159e-6,"MEAN_MOTION_DOT":-5.02e-6,"MEAN_MOTION_DDOT":0},{"OBJECT_NAME":"STARLINK-31983","OBJECT_ID":"2024-150V","EPOCH":"2026-02-23T06:21:56.956320","MEAN_MOTION":15.30190949,"ECCENTRICITY":0.0001139,"INCLINATION":53.1622,"RA_OF_ASC_NODE":13.9743,"ARG_OF_PERICENTER":95.33,"MEAN_ANOMALY":264.7831,"EPHEMERIS_TYPE":0,"CLASSIFICATION_TYPE":"U","NORAD_CAT_ID":60602,"ELEMENT_SET_NO":999,"REV_AT_EPOCH":8575,"BSTAR":2.7547e-5,"MEAN_MOTION_DOT":4.57e-6,"MEAN_MOTION_DDOT":0},{"OBJECT_NAME":"STARLINK-31874","OBJECT_ID":"2024-150W","EPOCH":"2026-02-23T20:37:33.117312","MEAN_MOTION":15.30198626,"ECCENTRICITY":0.000102,"INCLINATION":53.1623,"RA_OF_ASC_NODE":11.2807,"ARG_OF_PERICENTER":115.6282,"MEAN_ANOMALY":244.4824,"EPHEMERIS_TYPE":0,"CLASSIFICATION_TYPE":"U","NORAD_CAT_ID":60603,"ELEMENT_SET_NO":999,"REV_AT_EPOCH":8592,"BSTAR":-0.00012147,"MEAN_MOTION_DOT":-3.955e-5,"MEAN_MOTION_DDOT":0},{"OBJECT_NAME":"STARLINK-32039","OBJECT_ID":"2024-150X","EPOCH":"2026-02-23T20:23:16.592640","MEAN_MOTION":15.30195982,"ECCENTRICITY":0.0002727,"INCLINATION":53.1601,"RA_OF_ASC_NODE":14.0629,"ARG_OF_PERICENTER":71.7271,"MEAN_ANOMALY":288.4027,"EPHEMERIS_TYPE":0,"CLASSIFICATION_TYPE":"U","NORAD_CAT_ID":60604,"ELEMENT_SET_NO":999,"REV_AT_EPOCH":8588,"BSTAR":0.00014269,"MEAN_MOTION_DOT":3.868e-5,"MEAN_MOTION_DDOT":0},{"OBJECT_NAME":"STARLINK-11247 [DTC]","OBJECT_ID":"2024-152A","EPOCH":"2026-02-23T18:20:49.053696","MEAN_MOTION":15.69686203,"ECCENTRICITY":0.000159,"INCLINATION":53.1582,"RA_OF_ASC_NODE":185.2216,"ARG_OF_PERICENTER":89.7527,"MEAN_ANOMALY":270.3673,"EPHEMERIS_TYPE":0,"CLASSIFICATION_TYPE":"U","NORAD_CAT_ID":60720,"ELEMENT_SET_NO":999,"REV_AT_EPOCH":8664,"BSTAR":-8.4068e-5,"MEAN_MOTION_DOT":-0.00010751,"MEAN_MOTION_DDOT":0},{"OBJECT_NAME":"STARLINK-11259 [DTC]","OBJECT_ID":"2024-152B","EPOCH":"2026-02-23T18:13:46.889472","MEAN_MOTION":15.69678059,"ECCENTRICITY":0.000115,"INCLINATION":53.1591,"RA_OF_ASC_NODE":185.189,"ARG_OF_PERICENTER":73.8963,"MEAN_ANOMALY":286.2182,"EPHEMERIS_TYPE":0,"CLASSIFICATION_TYPE":"U","NORAD_CAT_ID":60721,"ELEMENT_SET_NO":999,"REV_AT_EPOCH":8664,"BSTAR":-2.0017e-5,"MEAN_MOTION_DOT":-3.009e-5,"MEAN_MOTION_DDOT":0},{"OBJECT_NAME":"STARLINK-11188 [DTC]","OBJECT_ID":"2024-152C","EPOCH":"2026-02-23T18:06:41.549184","MEAN_MOTION":15.69704834,"ECCENTRICITY":0.0001162,"INCLINATION":53.1587,"RA_OF_ASC_NODE":185.1583,"ARG_OF_PERICENTER":77.5529,"MEAN_ANOMALY":282.5618,"EPHEMERIS_TYPE":0,"CLASSIFICATION_TYPE":"U","NORAD_CAT_ID":60722,"ELEMENT_SET_NO":999,"REV_AT_EPOCH":8676,"BSTAR":1.0237e-5,"MEAN_MOTION_DOT":6.51e-6,"MEAN_MOTION_DDOT":0},{"OBJECT_NAME":"STARLINK-11272 [DTC]","OBJECT_ID":"2024-152D","EPOCH":"2026-02-23T17:52:34.611456","MEAN_MOTION":15.69697498,"ECCENTRICITY":9.62e-5,"INCLINATION":53.161,"RA_OF_ASC_NODE":185.0895,"ARG_OF_PERICENTER":78.9381,"MEAN_ANOMALY":281.1745,"EPHEMERIS_TYPE":0,"CLASSIFICATION_TYPE":"U","NORAD_CAT_ID":60723,"ELEMENT_SET_NO":999,"REV_AT_EPOCH":8664,"BSTAR":-1.8945e-5,"MEAN_MOTION_DOT":-2.881e-5,"MEAN_MOTION_DDOT":0},{"OBJECT_NAME":"STARLINK-11261 [DTC]","OBJECT_ID":"2024-152E","EPOCH":"2026-02-23T14:56:16.269792","MEAN_MOTION":15.69697659,"ECCENTRICITY":8.57e-5,"INCLINATION":53.1583,"RA_OF_ASC_NODE":185.7509,"ARG_OF_PERICENTER":71.7112,"MEAN_ANOMALY":288.3999,"EPHEMERIS_TYPE":0,"CLASSIFICATION_TYPE":"U","NORAD_CAT_ID":60724,"ELEMENT_SET_NO":999,"REV_AT_EPOCH":8662,"BSTAR":5.8077e-6,"MEAN_MOTION_DOT":1.15e-6,"MEAN_MOTION_DDOT":0},{"OBJECT_NAME":"STARLINK-11263 [DTC]","OBJECT_ID":"2024-152F","EPOCH":"2026-02-23T17:45:29.994336","MEAN_MOTION":15.69705184,"ECCENTRICITY":0.0001138,"INCLINATION":53.16,"RA_OF_ASC_NODE":185.0551,"ARG_OF_PERICENTER":130.2706,"MEAN_ANOMALY":229.8412,"EPHEMERIS_TYPE":0,"CLASSIFICATION_TYPE":"U","NORAD_CAT_ID":60725,"ELEMENT_SET_NO":999,"REV_AT_EPOCH":8664,"BSTAR":7.9192e-6,"MEAN_MOTION_DOT":3.71e-6,"MEAN_MOTION_DDOT":0},{"OBJECT_NAME":"STARLINK-11235 [DTC]","OBJECT_ID":"2024-152G","EPOCH":"2026-02-23T17:38:25.980288","MEAN_MOTION":15.69702154,"ECCENTRICITY":8.9e-5,"INCLINATION":53.158,"RA_OF_ASC_NODE":185.0254,"ARG_OF_PERICENTER":128.263,"MEAN_ANOMALY":231.8468,"EPHEMERIS_TYPE":0,"CLASSIFICATION_TYPE":"U","NORAD_CAT_ID":60726,"ELEMENT_SET_NO":999,"REV_AT_EPOCH":8677,"BSTAR":-9.9989e-6,"MEAN_MOTION_DOT":-1.799e-5,"MEAN_MOTION_DDOT":0},{"OBJECT_NAME":"STARLINK-11080 [DTC]","OBJECT_ID":"2024-152H","EPOCH":"2026-02-23T02:14:30.872832","MEAN_MOTION":15.69724829,"ECCENTRICITY":9.592e-5,"INCLINATION":53.1588,"RA_OF_ASC_NODE":188.1303,"ARG_OF_PERICENTER":46.0326,"MEAN_ANOMALY":314.0771,"EPHEMERIS_TYPE":0,"CLASSIFICATION_TYPE":"U","NORAD_CAT_ID":60727,"ELEMENT_SET_NO":999,"REV_AT_EPOCH":8667,"BSTAR":1.6755661e-5,"MEAN_MOTION_DOT":1.443e-5,"MEAN_MOTION_DDOT":0},{"OBJECT_NAME":"STARLINK-11249 [DTC]","OBJECT_ID":"2024-152J","EPOCH":"2026-02-23T18:55:59.697696","MEAN_MOTION":15.69703395,"ECCENTRICITY":7.68e-5,"INCLINATION":53.1589,"RA_OF_ASC_NODE":184.6445,"ARG_OF_PERICENTER":121.4345,"MEAN_ANOMALY":238.6748,"EPHEMERIS_TYPE":0,"CLASSIFICATION_TYPE":"U","NORAD_CAT_ID":60728,"ELEMENT_SET_NO":999,"REV_AT_EPOCH":8665,"BSTAR":-1.1206e-5,"MEAN_MOTION_DOT":-1.945e-5,"MEAN_MOTION_DDOT":0},{"OBJECT_NAME":"STARLINK-11146 [DTC]","OBJECT_ID":"2024-152K","EPOCH":"2026-02-23T20:20:36.182400","MEAN_MOTION":15.69703379,"ECCENTRICITY":0.0001256,"INCLINATION":53.1582,"RA_OF_ASC_NODE":184.2884,"ARG_OF_PERICENTER":66.545,"MEAN_ANOMALY":293.57,"EPHEMERIS_TYPE":0,"CLASSIFICATION_TYPE":"U","NORAD_CAT_ID":60729,"ELEMENT_SET_NO":999,"REV_AT_EPOCH":8679,"BSTAR":8.9301e-6,"MEAN_MOTION_DOT":4.93e-6,"MEAN_MOTION_DDOT":0},{"OBJECT_NAME":"STARLINK-11255 [DTC]","OBJECT_ID":"2024-152L","EPOCH":"2026-02-23T01:53:19.885632","MEAN_MOTION":15.69713922,"ECCENTRICITY":6.636e-5,"INCLINATION":53.1595,"RA_OF_ASC_NODE":188.0324,"ARG_OF_PERICENTER":68.5034,"MEAN_ANOMALY":291.6055,"EPHEMERIS_TYPE":0,"CLASSIFICATION_TYPE":"U","NORAD_CAT_ID":60730,"ELEMENT_SET_NO":999,"REV_AT_EPOCH":8655,"BSTAR":3.09931e-6,"MEAN_MOTION_DOT":-2.12e-6,"MEAN_MOTION_DDOT":0},{"OBJECT_NAME":"STARLINK-11254 [DTC]","OBJECT_ID":"2024-152M","EPOCH":"2026-02-23T18:34:47.855136","MEAN_MOTION":15.69699857,"ECCENTRICITY":3.68e-5,"INCLINATION":53.1596,"RA_OF_ASC_NODE":184.5493,"ARG_OF_PERICENTER":159.2112,"MEAN_ANOMALY":200.8921,"EPHEMERIS_TYPE":0,"CLASSIFICATION_TYPE":"U","NORAD_CAT_ID":60731,"ELEMENT_SET_NO":999,"REV_AT_EPOCH":8666,"BSTAR":2.7243e-6,"MEAN_MOTION_DOT":-2.57e-6,"MEAN_MOTION_DDOT":0}]
