STARLINK-31988          
1 60601U 24150U   26054.86574524 -.00000502  00000+0 -48159-5 0  9993
2 60601  53.1633  11.3218 0001233  83.0740 277.0401 15.30183270 85849
STARLINK-31983          
1 60602U 24150V   26054.26524255  .00000457  00000+0  27547-4 0  9998
2 60602  53.1622  13.9743 0001139  95.3300 264.7831 15.30190949 85753
STARLINK-31874          
1 60603U 24150W   26054.85941108 -.00003955  00000+0 -12147-3 0  9991
2 60603  53.1623  11.2807 0001020 115.6282 244.4824 15.30198626 85927
STARLINK-32039          
1 60604U 24150X   26054.84949760  .00003868  00000+0  14269-3 0  9991
2 60604  53.1601  14.0629 0002727  71.7271 288.4027 15.30195982 85882
STARLINK-11247 [DTC]    
1 60720U 24152A   26054.76445664 -.00010751  00000+0 -84068-4 0  9993
2 60720  53.1582 185.2216 0001590  89.7527 270.3673 15.69686203 86647
STARLINK-11259 [DTC]    
1 60721U 24152B   26054.75957048 -.00003009  00000+0 -20017-4 0  9999
2 60721  53.1591 185.1890 0001150  73.8963 286.2182 15.69678059 86646
STARLINK-11188 [DTC]    
1 60722U 24152C   26054.75464756  .00000651  00000+0  10237-4 0  9990
2 60722  53.1587 185.1583 0001162  77.5529 282.5618 15.69704834 86760
STARLINK-11272 [DTC]    
1 60723U 24152D   26054.74484504 -.00002881  00000+0 -18945-4 0  9996
2 60723  53.1610 185.0895 0000962  78.9381 281.1745 15.69697498 86641
STARLINK-11261 [DTC]    
1 60724U 24152E   26054.62241053  .00000115  00000+0  58077-5 0  9991
2 60724  53.1583 185.7509 0000857  71.7112 288.3999 15.69697659 86623
STARLINK-11263 [DTC]    
1 60725U 24152F   26054.73993049  .00000371  00000+0  79192-5 0  9998
2 60725  53.1600 185.0551 0001138 130.2706 229.8412 15.69705184 86642
STARLINK-11235 [DTC]    
1 60726U 24152G   26054.73502292 -.00001799  00000+0 -99989-5 0  9998
2 60726  53.1580 185.0254 0000890 128.2630 231.8468 15.69702154 86779
STARLINK-11080 [DTC]    
1 60727U 24152H   26054.09341288  .00001443  00000+0  16756-4 0  9998
2 60727  53.1588 188.1303 0000959  46.0326 314.0771 15.69724829 86675
STARLINK-11249 [DTC]    
1 60728U 24152J   26054.78888539 -.00001945  00000+0 -11206-4 0  9994
2 60728  53.1589 184.6445 0000768 121.4345 238.6748 15.69703395 86650
STARLINK-11146 [DTC]    
1 60729U 24152K   26054.84764100  .00000493  00000+0  89301-5 0  9996
2 60729  53.1582 184.2884 0001256  66.5450 293.5700 15.69703379 86791
STARLINK-11255 [DTC]    
1 60730U 24152L   26054.07870238 -.00000212  00000+0  30993-5 0  9996
2 60730  53.1595 188.0324 0000663  68.5034 291.6055 15.69713922 86550
STARLINK-11254 [DTC]    
1 60731U 24152M   26054.77416499 -.00000257  00000+0  27243-5 0  9992
2 60731  53.1596 184.5493 0000368 159.2112 200.8921 15.69699857 86663
